IRIDIUM 116             
1 43072U 17083C   24262.36793590  .00000613  00000+0  21183-3 0  9990
2 43072  86.3968 228.0997 0002283  89.7641 270.3817 14.34224961352896
IRIDIUM 130             
1 43073U 17083D   24262.40599388  .00000925  00000+0  32320-3 0  9996
2 43073  86.3974 228.2967 0002255  91.1611 268.9843 14.34223580352849
IRIDIUM 151             
1 43074U 17083E   24263.35738367  .00000191  00000+0  61083-4 0  9998
2 43074  86.3968 227.7291 0002509  80.1058 280.0421 14.34212682353009
IRIDIUM 134             
1 43075U 17083F   24263.39544330 -.00000036  00000+0 -19863-4 0  9997
2 43075  86.3970 227.7128 0002233  91.1839 268.9612 14.34213686352972
IRIDIUM 137             
1 43076U 17083G   24262.84997308  .00000503  00000+0  17243-3 0  9990
2 43076  86.3971 228.0203 0002820  87.4979 272.6539 14.34221509352969
IRIDIUM 141             
1 43077U 17083H   24263.40179210  .00000395  00000+0  13402-3 0  9990
2 43077  86.3966 227.6572 0002294  84.1740 275.9717 14.34210442353041
IRIDIUM 153             
1 43078U 17083J   24263.56328007  .00001028  00000+0  36011-3 0  9993
2 43078  86.4035 196.1017 0002084  67.9014 292.2403 14.34219002354174
IRIDIUM 131             
1 43079U 17083K   24262.97048175  .00000016  00000+0 -12207-5 0  9993
2 43079  86.3974 227.9801 0002414  86.6854 273.4618 14.34215785352910
